{
  "type": "FeatureCollection",
  "name": "communes_33_sample",
  "_note": "FIXTURE — géométries SIMPLIFIÉES (rectangles approximatifs), NON officielles. En production, remplacer par les contours IGN Admin Express (Licence Ouverte). Sert uniquement à démontrer la chaîne hors-ligne.",
  "crs": { "type": "name", "properties": { "name": "urn:ogc:def:crs:OGC:1.3:CRS84" } },
  "features": [
    {
      "type": "Feature",
      "properties": { "code_commune": "33063", "nom_commune": "Bordeaux" },
      "geometry": { "type": "Polygon", "coordinates": [[[-0.610,44.822],[-0.548,44.822],[-0.548,44.858],[-0.610,44.858],[-0.610,44.822]]] }
    },
    {
      "type": "Feature",
      "properties": { "code_commune": "33069", "nom_commune": "Bègles" },
      "geometry": { "type": "Polygon", "coordinates": [[[-0.565,44.795],[-0.530,44.795],[-0.530,44.823],[-0.565,44.823],[-0.565,44.795]]] }
    },
    {
      "type": "Feature",
      "properties": { "code_commune": "33192", "nom_commune": "Gradignan" },
      "geometry": { "type": "Polygon", "coordinates": [[[-0.640,44.758],[-0.592,44.758],[-0.592,44.788],[-0.640,44.788],[-0.640,44.758]]] }
    },
    {
      "type": "Feature",
      "properties": { "code_commune": "33281", "nom_commune": "Mérignac" },
      "geometry": { "type": "Polygon", "coordinates": [[[-0.680,44.822],[-0.618,44.822],[-0.618,44.858],[-0.680,44.858],[-0.680,44.822]]] }
    },
    {
      "type": "Feature",
      "properties": { "code_commune": "33318", "nom_commune": "Pessac" },
      "geometry": { "type": "Polygon", "coordinates": [[[-0.665,44.792],[-0.605,44.792],[-0.605,44.822],[-0.665,44.822],[-0.665,44.792]]] }
    },
    {
      "type": "Feature",
      "properties": { "code_commune": "33449", "nom_commune": "Talence" },
      "geometry": { "type": "Polygon", "coordinates": [[[-0.608,44.795],[-0.575,44.795],[-0.575,44.822],[-0.608,44.822],[-0.608,44.795]]] }
    }
  ]
}
